IRIDIUM 119             
1 42959U 17061E   24209.39512492  .00000417  00000+0  14189-3 0  9993
2 42959  86.3992 313.5107 0002501  96.4491 263.6989 14.34218045355940
IRIDIUM 107             
1 42960U 17061F   24209.27461643  .00000061  00000+0  14890-4 0  9998
2 42960  86.3992 313.5781 0002411  93.8419 266.3052 14.34217179355938
IRIDIUM 132             
1 42961U 17061G   24209.28095575  .00000034  00000+0  51695-5 0  9992
2 42961  86.3991 313.5599 0002422  90.0027 270.1446 14.34215066355934
IRIDIUM 136             
1 42962U 17061H   24209.24290262  .00000084  00000+0  22817-4 0  9997
2 42962  86.3993 313.5793 0002441  99.8928 260.2544 14.34217998355947
IRIDIUM 139             
1 42963U 17061J   24209.52831664  .00000392  00000+0  13301-3 0  9995
2 42963  86.3992 313.5106 0002591  89.5416 270.6077 14.34216470355994
IRIDIUM 125             
1 42964U 17061K   24209.23656034 -.00000065  00000+0 -30427-4 0  9998
2 42964  86.3992 313.6811 0002566  97.5562 262.5926 14.34215888355964
IRIDIUM 135             
1 43070U 17083A   24209.21068679  .00000374  00000+0  12663-3 0  9993
2 43070  86.3937 250.3356 0001995  90.7279 269.4145 14.34219938345258
IRIDIUM 138             
1 43071U 17083B   24209.16628764  .00000075  00000+0  19874-4 0  9995
2 43071  86.3926 250.0664 0002572  98.8055 261.3432 14.34216578345234
